{"type": "FeatureCollection", "features": [{"type": "Feature", "properties": {"norad_id": 66316, "name": "QPS-SAR-14 (YACHIHOKO-I)", "group": "last-30-days", "lat": -17.469663423007606, "lon": -43.01325245442418, "alt_km": 577.387113601053, "timestamp": "2025-12-05T05:43:13.894379+00:00", "meta": {"OBJECT_NAME": "QPS-SAR-14 (YACHIHOKO-I)", "OBJECT_ID": "2025-252A", "EPOCH": "2025-12-04T15:59:51.959904", "MEAN_MOTION": 14.97574412, "ECCENTRICITY": 0.0006845, "INCLINATION": 42.0036, "RA_OF_ASC_NODE": 119.6506, "ARG_OF_PERICENTER": 95.5659, "MEAN_ANOMALY": 264.5947, "EPHEMERIS_TYPE": 0, "CLASSIFICATION_TYPE": "U", "NORAD_CAT_ID": 66316, "ELEMENT_SET_NO": 999, "REV_AT_EPOCH": 432, "BSTAR": 0.0011222, "MEAN_MOTION_DOT": 0.00013169, "MEAN_MOTION_DDOT": 0}, "tle": {"line1": "1 66316U 25252A   25338.66657361  .00013169  00000+0  11222-2 0  9998", "line2": "2 66316  42.0036 119.6506 0006845  95.5659 264.5947 14.97574412  4329"}}, "geometry": {"type": "Point", "coordinates": [-43.01325245442418, -17.469663423007606]}}, {"type": "Feature", "properties": {"norad_id": 66317, "name": "ELECTRON R/B", "group": "last-30-days", "lat": 37.76465063848116, "lon": 155.00769692707075, "alt_km": 167.28766008359707, "timestamp": "2025-12-05T05:43:13.894438+00:00", "meta": {"OBJECT_NAME": "ELECTRON R/B", "OBJECT_ID": "2025-252B", "EPOCH": "2025-12-04T16:09:30.337920", "MEAN_MOTION": 16.20073041, "ECCENTRICITY": 0.0062086, "INCLINATION": 41.9852, "RA_OF_ASC_NODE": 99.2617, "ARG_OF_PERICENTER": 80.1195, "MEAN_ANOMALY": 280.6676, "EPHEMERIS_TYPE": 0, "CLASSIFICATION_TYPE": "U", "NORAD_CAT_ID": 66317, "ELEMENT_SET_NO": 999, "REV_AT_EPOCH": 455, "BSTAR": 0.0015417, "MEAN_MOTION_DOT": 0.04861387, "MEAN_MOTION_DDOT": 8.3152e-06}, "tle": {"line1": "1 66317U 25252B   25338.67326780  .04861387  83152-5  15417-2 0  9990", "line2": "2 66317  41.9852  99.2617 0062086  80.1195 280.6676 16.20073041  4557"}}, "geometry": {"type": "Point", "coordinates": [155.00769692707075, 37.76465063848116]}}, {"type": "Feature", "properties": {"norad_id": 66319, "name": "STARLINK-35442", "group": "last-30-days", "lat": -23.25979613705514, "lon": 1.637326354694787, "alt_km": 445.17758677533584, "timestamp": "2025-12-05T05:43:13.894456+00:00", "meta": {"OBJECT_NAME": "STARLINK-35442", "OBJECT_ID": "2025-253A", "EPOCH": "2025-12-04T11:12:12.627648", "MEAN_MOTION": 15.40680264, "ECCENTRICITY": 0.0001636, "INCLINATION": 43.0027, "RA_OF_ASC_NODE": 33.5509, "ARG_OF_PERICENTER": 271.7121, "MEAN_ANOMALY": 88.3548, "EPHEMERIS_TYPE": 0, "CLASSIFICATION_TYPE": "U", "NORAD_CAT_ID": 66319, "ELEMENT_SET_NO": 999, "REV_AT_EPOCH": 564, "BSTAR": 0.002125, "MEAN_MOTION_DOT": 0.0008945, "MEAN_MOTION_DDOT": 0}, "tle": {"line1": "1 66319U 25253A   25338.46681282  .00089450  00000+0  21250-2 0  9997", "line2": "2 66319  43.0027  33.5509 0001636 271.7121  88.3548 15.40680264  5642"}}, "geometry": {"type": "Point", "coordinates": [1.637326354694787, -23.25979613705514]}}, {"type": "Feature", "properties": {"norad_id": 66320, "name": "STARLINK-34616", "group": "last-30-days", "lat": 27.035839929716243, "lon": 175.48031282545085, "alt_km": 436.93261520835586, "timestamp": "2025-12-05T05:43:13.894470+00:00", "meta": {"OBJECT_NAME": "STARLINK-34616", "OBJECT_ID": "2025-253B", "EPOCH": "2025-12-04T18:00:02.000160", "MEAN_MOTION": 15.44091342, "ECCENTRICITY": 0.0001165, "INCLINATION": 43.0006, "RA_OF_ASC_NODE": 31.5087, "ARG_OF_PERICENTER": 271.3128, "MEAN_ANOMALY": 31.0064, "EPHEMERIS_TYPE": 0, "CLASSIFICATION_TYPE": "U", "NORAD_CAT_ID": 66320, "ELEMENT_SET_NO": 999, "REV_AT_EPOCH": 584, "BSTAR": -0.049091, "MEAN_MOTION_DOT": -0.02043192, "MEAN_MOTION_DDOT": 0}, "tle": {"line1": "1 66320U 25253B   25338.75002315 -.02043192  00000+0 -49091-1 0  9994", "line2": "2 66320  43.0006  31.5087 0001165 271.3128  31.0064 15.44091342  5847"}}, "geometry": {"type": "Point", "coordinates": [175.48031282545085, 27.035839929716243]}}, {"type": "Feature", "properties": {"norad_id": 66321, "name": "STARLINK-34615", "group": "last-30-days", "lat": 27.864555969488524, "lon": 173.24126771718056, "alt_km": 411.7636059375145, "timestamp": "2025-12-05T05:43:13.894482+00:00", "meta": {"OBJECT_NAME": "STARLINK-34615", "OBJECT_ID": "2025-253C", "EPOCH": "2025-12-04T18:00:02.000160", "MEAN_MOTION": 15.50645357, "ECCENTRICITY": 0.0001665, "INCLINATION": 43.0003, "RA_OF_ASC_NODE": 30.6633, "ARG_OF_PERICENTER": 280.7282, "MEAN_ANOMALY": 6.7619, "EPHEMERIS_TYPE": 0, "CLASSIFICATION_TYPE": "U", "NORAD_CAT_ID": 66321, "ELEMENT_SET_NO": 999, "REV_AT_EPOCH": 569, "BSTAR": -0.0022769, "MEAN_MOTION_DOT": -0.00132002, "MEAN_MOTION_DDOT": 0}, "tle": {"line1": "1 66321U 25253C   25338.75002315 -.00132002  00000+0 -22769-2 0  9996", "line2": "2 66321  43.0003  30.6633 0001665 280.7282   6.7619 15.50645357  5698"}}, "geometry": {"type": "Point", "coordinates": [173.24126771718056, 27.864555969488524]}}, {"type": "Feature", "properties": {"norad_id": 66322, "name": "STARLINK-35292", "group": "last-30-days", "lat": 1.148147102496385, "lon": 30.246988174863283, "alt_km": 444.20663502381103, "timestamp": "2025-12-05T05:43:13.894494+00:00", "meta": {"OBJECT_NAME": "STARLINK-35292", "OBJECT_ID": "2025-253D", "EPOCH": "2025-12-04T14:00:01.000224", "MEAN_MOTION": 15.40702534, "ECCENTRICITY": 0.00016414, "INCLINATION": 43.0007, "RA_OF_ASC_NODE": 32.7895, "ARG_OF_PERICENTER": 269.5668, "MEAN_ANOMALY": 55.0705, "EPHEMERIS_TYPE": 0, "CLASSIFICATION_TYPE": "U", "NORAD_CAT_ID": 66322, "ELEMENT_SET_NO": 999, "REV_AT_EPOCH": 561, "BSTAR": -0.0036875485, "MEAN_MOTION_DOT": -0.00151343, "MEAN_MOTION_DDOT": 0}, "tle": {"line1": "1 66322U 25253D   25338.58334491 -.00151343  00000+0 -36875-2 0  9993", "line2": "2 66322  43.0007  32.7895 0001641 269.5668  55.0705 15.40702534  5618"}}, "geometry": {"type": "Point", "coordinates": [30.246988174863283, 1.148147102496385]}}, {"type": "Feature", "properties": {"norad_id": 66323, "name": "STARLINK-35309", "group": "last-30-days", "lat": -3.102197899195739, "lon": -148.0962498226941, "alt_km": 413.91665153602116, "timestamp": "2025-12-05T05:43:13.894505+00:00", "meta": {"OBJECT_NAME": "STARLINK-35309", "OBJECT_ID": "2025-253E", "EPOCH": "2025-12-04T11:55:34.293216", "MEAN_MOTION": 15.50737349, "ECCENTRICITY": 0.0003796, "INCLINATION": 43.0008, "RA_OF_ASC_NODE": 32.9093, "ARG_OF_PERICENTER": 268.5168, "MEAN_ANOMALY": 91.5257, "EPHEMERIS_TYPE": 0, "CLASSIFICATION_TYPE": "U", "NORAD_CAT_ID": 66323, "ELEMENT_SET_NO": 999, "REV_AT_EPOCH": 565, "BSTAR": 0.0030261, "MEAN_MOTION_DOT": 0.00182433, "MEAN_MOTION_DDOT": 0}, "tle": {"line1": "1 66323U 25253E   25338.49692469  .00182433  00000+0  30261-2 0  9991", "line2": "2 66323  43.0008  32.9093 0003796 268.5168  91.5257 15.50737349  5653"}}, "geometry": {"type": "Point", "coordinates": [-148.0962498226941, -3.102197899195739]}}, {"type": "Feature", "properties": {"norad_id": 66324, "name": "STARLINK-35506", "group": "last-30-days", "lat": 2.425890891082001, "lon": -154.01999288367756, "alt_km": 414.39991121481125, "timestamp": "2025-12-05T05:43:13.894516+00:00", "meta": {"OBJECT_NAME": "STARLINK-35506", "OBJECT_ID": "2025-253F", "EPOCH": "2025-12-03T12:46:12.432576", "MEAN_MOTION": 15.5059009, "ECCENTRICITY": 8.705e-05, "INCLINATION": 43.0006, "RA_OF_ASC_NODE": 38.5692, "ARG_OF_PERICENTER": 276.2742, "MEAN_ANOMALY": 83.8019, "EPHEMERIS_TYPE": 0, "CLASSIFICATION_TYPE": "U", "NORAD_CAT_ID": 66324, "ELEMENT_SET_NO": 999, "REV_AT_EPOCH": 550, "BSTAR": 0.00045167229, "MEAN_MOTION_DOT": 0.00026255, "MEAN_MOTION_DDOT": 0}, "tle": {"line1": "1 66324U 25253F   25337.53208834  .00026255  00000+0  45167-3 0  9996", "line2": "2 66324  43.0006  38.5692 0000870 276.2742  83.8019 15.50590090  5507"}}, "geometry": {"type": "Point", "coordinates": [-154.01999288367756, 2.425890891082001]}}, {"type": "Feature", "properties": {"norad_id": 66325, "name": "STARLINK-35504", "group": "last-30-days", "lat": 42.970831327052295, "lon": 117.3320920280124, "alt_km": 438.1034674114326, "timestamp": "2025-12-05T05:43:13.894554+00:00", "meta": {"OBJECT_NAME": "STARLINK-35504", "OBJECT_ID": "2025-253G", "EPOCH": "2025-12-04T18:00:02.000160", "MEAN_MOTION": 15.4073236, "ECCENTRICITY": 9.99e-05, "INCLINATION": 43.0005, "RA_OF_ASC_NODE": 31.6162, "ARG_OF_PERICENTER": 265.7105, "MEAN_ANOMALY": 351.481, "EPHEMERIS_TYPE": 0, "CLASSIFICATION_TYPE": "U", "NORAD_CAT_ID": 66325, "ELEMENT_SET_NO": 999, "REV_AT_EPOCH": 564, "BSTAR": -0.002355, "MEAN_MOTION_DOT": -0.00097532, "MEAN_MOTION_DDOT": 0}, "tle": {"line1": "1 66325U 25253G   25338.75002315 -.00097532  00000+0 -23550-2 0  9997", "line2": "2 66325  43.0005  31.6162 0000999 265.7105 351.4810 15.40732360  5646"}}, "geometry": {"type": "Point", "coordinates": [117.3320920280124, 42.970831327052295]}}, {"type": "Feature", "properties": {"norad_id": 66326, "name": "STARLINK-35479", "group": "last-30-days", "lat": -3.9458757913191507, "lon": -147.19003416523432, "alt_km": 415.1259211046781, "timestamp": "2025-12-05T05:43:13.894569+00:00", "meta": {"OBJECT_NAME": "STARLINK-35479", "OBJECT_ID": "2025-253H", "EPOCH": "2025-12-04T15:00:38.013408", "MEAN_MOTION": 15.50615042, "ECCENTRICITY": 0.0001415, "INCLINATION": 43.0005, "RA_OF_ASC_NODE": 32.1514, "ARG_OF_PERICENTER": 287.7439, "MEAN_ANOMALY": 72.3267, "EPHEMERIS_TYPE": 0, "CLASSIFICATION_TYPE": "U", "NORAD_CAT_ID": 66326, "ELEMENT_SET_NO": 999, "REV_AT_EPOCH": 567, "BSTAR": 0.001591, "MEAN_MOTION_DOT": 0.00094247, "MEAN_MOTION_DDOT": 0}, "tle": {"line1": "1 66326U 25253H   25338.62543997  .00094247  00000+0  15910-2 0  9999", "line2": "2 66326  43.0005  32.1514 0001415 287.7439  72.3267 15.50615042  5678"}}, "geometry": {"type": "Point", "coordinates": [-147.19003416523432, -3.9458757913191507]}}]}